#dP2024  7  1 12  0  0.00000000      96 __u+U IGS20 EXT  IAC
## 2321 129600.00000000   900.00000000 60492 0.5000000000000
+   54   G02G03G04G05G06G07G08G09G10G11G12G13G14G15G16G17G18
+        G19G20G21G22G23G24G25G26G27G28G29G30G31G32R01R02R03
+        R04R05R07R08R09R11R12R13R14R15R16R17R18R19R20R21R22
+        R24R25R26  0  0  0  0  0  0  0  0  0  0  0  0  0  0
+          0  0  0  0  0  0  0  0  0  0  0  0  0  0  0  0  0
++         9  8  9  8  7  9  8  9  9  7  8  9  7  9  8  8  8
++         7  7  8  9  9  8  9  7  7  9  7  9  7  7  9  8  8
++         7  7  9  8  8  8  8  9  7  6  8  7  9  9  9  7  8
++         9  9 12  0  0  0  0  0  0  0  0  0  0  0  0  0  0
++         0  0  0  0  0  0  0  0  0  0  0  0  0  0  0  0  0
%c M  cc GPS ccc cccc cccc cccc cccc ccccc ccccc ccccc ccccc
%c cc cc ccc ccc cccc cccc cccc cccc ccccc ccccc ccccc ccccc
%f  0.0000000  0.000000000  0.00000000000  0.000000000000000
%f  0.0000000  0.000000000  0.00000000000  0.000000000000000
%i    0    0    0    0      0      0      0      0         0
%i    0    0    0    0      0      0      0      0         0
/* IAC                                ULTRA-RAPID PREDICTION
/* S/V CLOCKS ARE ALIGNED TO GNSS TIME                      
/* G:C1WC2W R:C1PC2P E:C1XC5X C:C2IC6I J:C1CC2S             
/* PCV:IGS20_2317 OL/AL:FES2004  NONE     YN ORB:CoN CLK:CoN
*  2024 07 01 23 30  0.00000000
PG02 -14578.426500   5107.891860  22060.539645   -407.122812
PG03 -22998.407979  12502.294826   3933.506968    439.468729
PG04 -20468.566774   2456.940666 -16806.502392    395.065112
PG05  20252.008224   -469.736995 -17404.236694   -178.289899
PG06   5177.728402  25409.982691  -5409.603674    186.400874
PG07  -6592.745978  22428.359322 -11633.475997    -79.072126
PG08 -25170.612853  -5208.076348   7406.143866    255.816268
PG09  -9957.090760  12098.188491 -21535.033728    256.603837
PG10   1531.247738 -17299.890770  20201.758808    -55.760224
PG11  12134.328944  16625.254096 -16797.070725   -696.894312
PG12  24028.129682  -9446.231265   5843.941858   -518.805436
PG13  22659.102334  14027.558374   1263.003924    661.765132
PG14  -5601.337567  18920.304722  17716.201499    438.860955
PG15  25492.442112   2319.227337   6931.979479    176.393472
PG16 -18554.838581  -4672.720548 -18935.278025   -248.512330
PG17   4198.261331  17763.925510  19656.567841    685.421343
PG18   6527.640621 -22858.731909 -11613.725039   -631.810257
PG19  13446.546985  18873.281593  13167.994455    504.436506
PG20  13790.628514   7599.225529 -21307.361673    373.219777
PG21 -15775.159685  -1839.655971  21825.082786    111.735250
PG22   2010.787387  16093.783880  21498.310680    -34.426868
PG23  12968.500612 -19584.481380  12217.154646    263.816588
PG24  15340.648332  -2819.286468  21071.420613   -481.077570
PG25  19900.972903 -17118.789743  -3319.277598    498.060095
PG26  -8026.870521 -13898.502352 -21288.353766    127.428428
PG27 -23109.221443 -13241.814603  -3178.905639    -30.002284
PG28  -4911.844154 -25943.866090  -2882.857721   -313.380365
PG29  13757.129800  -8707.803131 -21058.005822   -591.608015
PG30    621.532347  26323.166181  -1939.191267   -364.943063
PG31 -10758.624244 -20076.244736 -13547.508632   -227.059492
PG32  -7626.527176 -17763.833233  18513.754348   -614.148008
PR01  21788.356000   6464.490108 -11599.655935     90.086272
PR02  24889.867465   -474.529468   5454.589736    -23.528995
PR03  14141.076251  -8177.917797  19616.439644    103.095306
PR04  -3861.616482 -10873.559771  22778.564992    243.591484
PR05 -19913.904782  -8084.834825  13764.986565    133.952373
PR07 -13590.330922   8327.649178 -19891.311456     85.752430
PR08   4194.340259  10917.418929 -22605.782735     -5.498162
PR09 -16127.926161   9528.268077 -17246.224628    195.337914
PR11  -6157.060534  20835.955426  13362.638522     19.557324
PR12   7987.721343   7865.929923  22942.930877     41.966419
PR13  15510.854537  -7052.256372  18975.312442    -48.899209
PR14  14795.999938 -20696.822025   2029.931642     26.649838
PR15   5127.162298 -20265.988192 -14600.267765     78.287638
PR16  -7720.671046  -7967.097497 -22955.691911     26.965262
PR17   3485.504056 -14610.508750 -20600.128154    100.868346
PR18  -6605.692445 -23223.519571  -8286.460899    149.830794
PR19 -12297.188424 -21335.795971   6628.395789   -282.364356
PR20 -12376.447381  -4113.135986  21931.589692   -115.415588
PR21  -3730.008034  14313.599130  20784.924959   -114.005137
PR22   6511.604698  23606.167367   7151.788234     95.021386
PR24  12782.323834   2795.072427 -21889.479008    -62.097283
PR25  -4090.949992  14884.447840  20316.387665    -94.117424
PR26   2804.882529  10906.630782 -22869.390396     -5.022650
*  2024 07 01 23 45  0.00000000
PG02 -15069.718866   2729.894258  22181.450744   -407.116305
PG03 -22601.429229  11975.870370   6757.331863    439.484233
PG04 -22029.410354   1531.318744 -14841.361106    395.072268
PG05  18738.444880    910.512473 -19016.888882   -178.291142
PG06   5044.151560  25886.735499  -2538.705757    186.381063
PG07  -7035.990696  20910.944134 -13921.001856    -79.064328
PG08 -25732.491369  -5685.463306   4703.137432    255.831713
PG09 -12168.731523  11137.171426 -20910.442403    256.617143
PG10   3360.567395 -18519.371221  18809.760191    -55.768368
PG11  12087.619022  18441.985471 -14826.524322   -696.900909
PG12  23435.638468  -8779.115912   8543.376237   -518.808290
PG13  22554.053424  14204.757453  -1600.496887    661.767342
PG14  -7296.292625  19867.045781  15952.813126    438.869087
PG15  26085.890981   2794.316044   4234.903222    176.397233
PG16 -16753.614943  -5873.769656 -20219.233857   -248.502741
PG17   2166.526331  16828.809583  20813.520534    685.415300
PG18   6852.488556 -21412.280855 -13962.978840   -631.814192
PG19  11941.838075  18199.840715  15322.957334    504.441388
PG20  12114.566853   9417.306619 -21610.711991    373.219423
PG21 -16242.281662  -4151.952408  21234.073011    111.732984
PG22     -3.529355  17250.152918  20689.328688    -34.431107
PG23  14073.043978 -20208.263403   9698.267284    263.824729
PG24  15853.667089   -372.071585  20916.904227   -481.079350
PG25  20230.875939 -16988.929769   -480.587091    498.060520
PG26  -6175.697161 -15416.405496 -20819.480180    127.422525
PG27 -22581.335182 -13246.465509  -5949.937001    -30.003310
PG28  -4683.615063 -26144.391710    -33.131284   -313.395039
PG29  15787.968899  -7548.715239 -20065.634930   -591.606321
PG30    232.416177  25961.866521  -4723.369998   -364.937324
PG31 -10638.247581 -21492.402588 -11197.395971   -227.059243
PG32  -5606.735835 -17020.151227  19881.503719   -614.146488
PR01  20194.952865   6323.073552 -14255.453999     90.087306
PR02  25369.665535   -616.758308   2272.170194    -23.529105
PR03  16440.147800  -8181.030788  17722.931213    103.095979
PR04  -1037.331436 -10710.473436  23155.934076    243.592868
PR05 -18074.908099  -7847.994232  16220.598675    133.953011
PR07 -15942.284836   8324.601530 -18070.771968     85.753112
PR08   1366.411070  10780.768580 -23016.940084     -5.498488
PR09 -14946.585340   7609.626543 -19162.217307    195.339680
PR11  -6826.370840  22159.853707  10622.254462     19.556097
PR12   6527.988966  10247.425782  22459.690622     41.966876
PR13  14187.373903  -4998.429395  20593.482989    -48.899586
PR14  14465.817826 -20380.153897   5185.439154     26.649841
PR15   5909.355730 -21716.039358 -11992.332531     78.287382
PR16  -6269.845135 -10367.346563 -22436.961475     26.965463
PR17   4627.680768 -12245.442767 -21880.667758    100.871462
PR18  -6232.777243 -22061.674295 -11222.144721    149.832593
PR19 -12754.625992 -21811.759918   3459.733868   -282.365563
PR20 -13561.597600  -6461.410691  20628.624796   -115.416053
PR21  -4856.222694  11919.074980  22023.362300   -114.008062
PR22   6182.750992  22585.471472  10129.708050     95.016397
PR24  14043.422309   5101.923977 -20669.041986    -62.098472
PR25  -5134.372381  12515.999992  21631.981278    -94.119364
PR26    -34.742526  10794.835803 -23091.065922     -5.021766
EOF
